STARLINK-31110          
1 58679U 23211N   24292.42839943  .00000665  00000+0  35255-4 0  9995
2 58679  42.9995  66.7380 0000539 259.2994 100.7796 15.25906019 44929
STARLINK-31112          
1 58680U 23211P   24292.68570310  .00004523  00000+0  18258-3 0  9995
2 58680  43.0011  65.2242 0001073 279.0183  81.0547 15.25917846 46148
STARLINK-31147          
1 58681U 23211Q   24292.42613620  .00002053  00000+0  88330-4 0  9995
2 58681  42.9982  66.7131 0001554 246.1491 113.9197 15.25904028 44926
STARLINK-31144          
1 58682U 23211R   24293.37862312 -.00003030  00000+0 -10610-3 0  9998
2 58682  43.0036  60.9743 0001548 277.4492  82.6183 15.25885726 46354
STARLINK-31095          
1 58683U 23211S   24293.40121392 -.00000931  00000+0 -25758-4 0  9996
2 58683  43.0048  61.1319 0001149 286.6287  73.4438 15.25921987 46341
STARLINK-31107          
1 58684U 23211T   24293.39216654  .00019850  00000+0  76601-3 0  9991
2 58684  43.0002  61.0679 0000368 259.4466 100.6344 15.25936419 46243
STARLINK-31121          
1 58685U 23211U   24293.05808937 -.00000181  00000+0  29229-5 0  9990
2 58685  42.9978  62.8628 0001417 259.7006 100.3685 15.25915617 46192
STARLINK-31137          
1 58686U 23211V   24292.65629953  .00000877  00000+0  43369-4 0  9996
2 58686  43.0027  65.0198 0000950 255.1206 104.9540 15.25908223 44968
STARLINK-31139          
1 58688U 23211X   24292.66987032  .00000192  00000+0  17211-4 0  9991
2 58688  43.0049  65.1071 0002240 274.6505  85.4090 15.25923474 44965
STARLINK-31106          
1 58689U 23211Y   24292.67665470  .00003549  00000+0  14544-3 0  9996
2 58689  43.0030  65.1568 0001482 276.1561  83.9121 15.25911697 44965
STARLINK-11072 [DTC]    
1 58705U 24002A   24293.15542116  .00001780  00000+0  18292-4 0  9999
2 58705  53.1582 257.4150 0001845 105.5104 254.6119 15.71465625 46740
STARLINK-11075 [DTC]    
1 58706U 24002B   24293.18567552  .00003046  00000+0  32068-4 0  9998
2 58706  53.1595 259.0910 0001416  92.2756 267.8423 15.67986842 46722
STARLINK-11077 [DTC]    
1 58707U 24002C   24293.17944612  .00002499  00000+0  23770-4 0  9995
2 58707  53.1590 257.5623 0001421  87.9777 272.1404 15.71492043 46742
STARLINK-11079 [DTC]    
1 58708U 24002D   24293.17346051  .00004294  00000+0  37532-4 0  9995
2 58708  53.1575 257.5324 0001383  93.0359 267.0817 15.71475978 46744
STARLINK-11076 [DTC]    
1 58709U 24002E   24293.21342703  .00002521  00000+0  23959-4 0  9990
2 58709  53.1589 257.0687 0001935 144.1062 216.0087 15.71475655 46643
STARLINK-11078 [DTC]    
1 58710U 24002F   24293.15229525  .00008675  00000+0  71048-4 0  9999
2 58710  53.1580 257.3961 0001389 109.5941 250.5227 15.71483641 46742
STARLINK-31031          
1 58711U 24002G   24292.51394026  .00002029  00000+0  16103-3 0  9995
2 58711  53.1619  23.1036 0001373  91.2496 268.8651 15.04929338 44973
STARLINK-31029          
1 58712U 24002H   24292.95533806  .00017546  00000+0  12416-2 0  9997
2 58712  53.1599  21.5823 0001338  78.3799 281.7340 15.04936888 44887
STARLINK-30973          
1 58713U 24002J   24293.41699924  .00006376  00000+0  46417-3 0  9992
2 58713  53.1599  19.4822 0001192  83.7808 276.3318 15.04943040 45077
