OBJECT_NAME,OBJECT_ID,EPOCH,MEAN_MOTION,ECCENTRICITY,INCLINATION,RA_OF_ASC_NODE,ARG_OF_PERICENTER,MEAN_ANOMALY,EPHEMERIS_TYPE,CLASSIFICATION_TYPE,NORAD_CAT_ID,ELEMENT_SET_NO,REV_AT_EPOCH,BSTAR,MEAN_MOTION_DOT,MEAN_MOTION_DDOT
STARLINK-31110,2023-211N,2024-10-18T10:16:53.710752,15.25906019,0.0000539,42.9995,66.738,259.2994,100.7796,0,U,58679,999,4492,3.53E-05,6.65E-06,0
STARLINK-31112,2023-211P,2024-10-18T16:27:24.747840,15.25917846,0.0001073,43.0011,65.2242,279.0183,81.0547,0,U,58680,999,4614,1.83E-04,4.52E-05,0
STARLINK-31147,2023-211Q,2024-10-18T10:13:38.167680,15.25904028,0.0001554,42.9982,66.7131,246.1491,113.9197,0,U,58681,999,4492,8.83E-05,2.05E-05,0
STARLINK-31144,2023-211R,2024-10-19T09:05:13.037568,15.25885726,0.0001548,43.0036,60.9743,277.4492,82.6183,0,U,58682,999,4635,-1.06E-04,-3.03E-05,0
STARLINK-31095,2023-211S,2024-10-19T09:37:44.882688,15.25921987,0.0001149,43.0048,61.1319,286.6287,73.4438,0,U,58683,999,4634,-2.58E-05,-9.31E-06,0
STARLINK-31107,2023-211T,2024-10-19T09:24:43.189056,15.25936419,0.0000368,43.0002,61.0679,259.4466,100.6344,0,U,58684,999,4624,7.66E-04,1.99E-04,0
STARLINK-31121,2023-211U,2024-10-19T01:23:38.921568,15.25915617,0.0001417,42.9978,62.8628,259.7006,100.3685,0,U,58685,999,4619,2.92E-06,-1.81E-06,0
STARLINK-31137,2023-211V,2024-10-18T15:45:04.279392,15.25908223,0.000095,43.0027,65.0198,255.1206,104.954,0,U,58686,999,4496,4.34E-05,8.77E-06,0
STARLINK-31139,2023-211X,2024-10-18T16:04:36.795648,15.25923474,0.000224,43.0049,65.1071,274.6505,85.409,0,U,58688,999,4496,1.72E-05,1.92E-06,0
STARLINK-31106,2023-211Y,2024-10-18T16:14:22.966080,15.25911697,0.0001482,43.003,65.1568,276.1561,83.9121,0,U,58689,999,4496,1.45E-04,3.55E-05,0
STARLINK-11072 [DTC],2024-002A,2024-10-19T03:43:48.388224,15.71465625,0.0001845,53.1582,257.415,105.5104,254.6119,0,U,58705,999,4674,1.83E-05,1.78E-05,0
STARLINK-11075 [DTC],2024-002B,2024-10-19T04:27:22.364928,15.67986842,0.0001416,53.1595,259.091,92.2756,267.8423,0,U,58706,999,4672,3.21E-05,3.05E-05,0
STARLINK-11077 [DTC],2024-002C,2024-10-19T04:18:24.144768,15.71492043,0.0001421,53.159,257.5623,87.9777,272.1404,0,U,58707,999,4674,2.38E-05,2.50E-05,0
STARLINK-11079 [DTC],2024-002D,2024-10-19T04:09:46.988064,15.71475978,0.0001383,53.1575,257.5324,93.0359,267.0817,0,U,58708,999,4674,3.75E-05,4.29E-05,0
STARLINK-11076 [DTC],2024-002E,2024-10-19T05:07:20.095392,15.71475655,0.0001935,53.1589,257.0687,144.1062,216.0087,0,U,58709,999,4664,2.40E-05,2.52E-05,0
STARLINK-11078 [DTC],2024-002F,2024-10-19T03:39:18.309600,15.71483641,0.0001389,53.158,257.3961,109.5941,250.5227,0,U,58710,999,4674,7.10E-05,8.68E-05,0
STARLINK-31031,2024-002G,2024-10-18T12:20:04.438464,15.04929338,0.0001373,53.1619,23.1036,91.2496,268.8651,0,U,58711,999,4497,1.61E-04,2.03E-05,0
STARLINK-31029,2024-002H,2024-10-18T22:55:41.208384,15.04936888,0.0001338,53.1599,21.5823,78.3799,281.734,0,U,58712,999,4488,1.24E-03,1.75E-04,0
STARLINK-30973,2024-002J,2024-10-19T10:00:28.734336,15.0494304,0.0001192,53.1599,19.4822,83.7808,276.3318,0,U,58713,999,4507,4.64E-04,6.38E-05,0
